[{"OBJECT_NAME":"STARLINK-33567","OBJECT_ID":"2025-015R","EPOCH":"2026-03-09T21:25:28.484256","MEAN_MOTION":15.3023216,"ECCENTRICITY":0.00013258,"INCLINATION":53.1615,"RA_OF_ASC_NODE":321.4086,"ARG_OF_PERICENTER":132.6746,"MEAN_ANOMALY":227.4366,"EPHEMERIS_TYPE":0,"CLASSIFICATION_TYPE":"U","NORAD_CAT_ID":62773,"ELEMENT_SET_NO":999,"REV_AT_EPOCH":6451,"BSTAR":0.0012588691,"MEAN_MOTION_DOT":0.00037149,"MEAN_MOTION_DDOT":0},{"OBJECT_NAME":"CZ-4B R\/B","OBJECT_ID":"2004-035C","EPOCH":"2026-03-09T23:23:31.358400","MEAN_MOTION":15.2906998,"ECCENTRICITY":0.00309852,"INCLINATION":97.3501,"RA_OF_ASC_NODE":103.2135,"ARG_OF_PERICENTER":330.5139,"MEAN_ANOMALY":29.4353,"EPHEMERIS_TYPE":0,"CLASSIFICATION_TYPE":"U","NORAD_CAT_ID":28415,"ELEMENT_SET_NO":999,"REV_AT_EPOCH":17995,"BSTAR":0.00034109099,"MEAN_MOTION_DOT":9.691e-5,"MEAN_MOTION_DDOT":0}]
